RADUGA 1 [-]            
1 08513U 75123A   22282.59403463 -.00000012  00000+0  00000+0 0  9997
2 08513   6.2678 287.0061 0008001 220.7534 148.5808  1.00275523181317
RADUGA 2 [-]            
1 09416U 76092A   22282.52196912 -.00000159  00000+0  00000+0 0  9999
2 09416   6.9315 288.9984 0026421 358.0935 358.2023  1.00296937115830
RADUGA 3 [-]            
1 10159U 77071A   22282.56473902 -.00000284  00000+0  00000+0 0  9993
2 10159   7.5473 291.6014 0009747 238.3661 146.7794  1.00201353163545
RADUGA 4 [-]            
1 10987U 78073A   22282.16230373  .00000112  00000+0  00000+0 0  9993
2 10987   8.1747 295.1304 0007961 355.3337 187.4162  1.00304906106098
RADUGA 5 [-]            
1 11343U 79035A   22282.52398326 -.00000199  00000+0  00000+0 0  9998
2 11343   8.6336 297.8940 0006831 177.1769 175.4856  1.00258217115846
RADUGA 6 [-]            
1 11708U 80016A   22282.51917125 -.00000097  00000+0  00000+0 0  9994
2 11708   8.9949 300.9753 0003470 207.5075 127.6872  1.00344066108652
RADUGA 7 [-]            
1 12003U 80081A   22282.36408542 -.00000223  00000+0  00000+0 0  9997
2 12003   9.1802 302.9319 0010376 261.3532 278.7531  1.00282330109804
RADUGA 8 [-]            
1 12351U 81027A   22282.49634196 -.00000391  00000+0  00000+0 0  9990
2 12351   9.5113 303.5168 0082985 230.5701 139.0768  1.00390020109031
RADUGA 9 [-]            
1 12618U 81069A   22282.59245172 -.00000035  00000+0  00000+0 0  9990
2 12618   9.7324 306.4873 0004280 164.4477 184.5031  1.00352894 33834
RADUGA 10 [-]           
1 12897U 81102A   22282.52387579 -.00000217  00000+0  00000+0 0  9990
2 12897   9.8183 307.4692 0006288 184.4473 159.6497  1.00280432103830
RADUGA 11 [-]           
1 13669U 82113A   22282.59136111 -.00000053  00000+0  00000+0 0  9990
2 13669  11.8723 321.2235 0038462 255.0651  75.1839  0.97707702108375
RADUGA 12 [-]           
1 13974U 83028A   22282.59255933 -.00000063  00000+0  00000+0 0  9990
2 13974  10.9689 317.2540 0002359 131.2784 211.1761  1.00289225155870
RADUGA 13 [-]           
1 14307U 83088A   22282.20067189 -.00000042  00000+0  00000+0 0  9996
2 14307  12.1236 322.7694 0014417  45.0421 316.4804  0.98173180105726
RADUGA 14 [-]           
1 14725U 84016A   22282.52310678 -.00000229  00000+0  00000+0 0  9998
2 14725  11.1794 321.0279 0005492 148.9094 182.6959  1.00264651104597
RADUGA 15 [-]           
1 15057U 84063A   22282.49952495 -.00000375  00000+0  00000+0 0  9996
2 15057  11.3025 322.0164 0006357 163.2749 200.9630  1.00290272127602
RADUGA 16 [-]           
1 15946U 85070A   22282.38930637  .00000081  00000+0  00000+0 0  9997
2 15946  11.7704 326.6901 0002805 170.2677 212.8510  1.00301932108725
RADUGA 17 [-]           
1 16250U 85107A   22281.30785091 -.00000183  00000+0  00000+0 0  9994
2 16250  11.8967 328.0911 0015183 184.1759 244.1842  1.00129677138173
RADUGA 18 [-]           
1 16497U 86007A   22282.40535572 -.00000247  00000+0  00000+0 0  9997
2 16497  12.7055 330.7973 0076258 167.1340   9.8191  0.98815065132557
RADUGA 19 [-]           
1 17046U 86082A   22282.20276469 -.00000011  00000+0  00000+0 0  9995
2 17046  13.1395 334.7366 0014182 152.6381 208.0767  0.98458990129651
RADUGA 20 [-]           
1 17611U 87028A   22282.26964740 -.00000113  00000+0  00000+0 0  9999
2 17611  15.1575 338.2517 0031036 140.2440 216.9153  0.95961336125387
RADUGA 21 [-]           
1 18631U 87100A   22282.31368921  .00000096  00000+0  00000+0 0  9997
2 18631  13.2294 335.5689 0004046 136.9878 226.4458  1.00306774127589
RADUGA 22 [-]           
1 19596U 88095A   22282.57308731 -.00000386  00000+0  00000+0 0  9996
2 19596  13.2182 339.8712 0008127 143.6553 220.6483  1.00206271108156
RADUGA 23 [-]           
1 19928U 89030A   22282.23572645  .00000069  00000+0  00000+0 0  9992
2 19928  13.3700 341.6944 0022727 165.2278   5.5268  1.00346880121344
RADUGA-1 1 [-]          
1 20083U 89048A   22282.44679325 -.00000232  00000+0  00000+0 0  9994
2 20083  14.1266 344.7611 0022966 117.7413 250.8171  0.98711184117989
RADUGA 24 [-]           
1 20367U 89098A   22281.75743843  .00000049  00000+0  00000+0 0  9999
2 20367  13.9478 343.9538 0002605 144.6228 217.0973  1.00222109119464
RADUGA 25 [-]           
1 20499U 90016A   22281.23850486 -.00000261  00000+0  00000+0 0  9999
2 20499  13.7187 344.6167 0006273 147.7400 252.7070  1.00177036119396
RADUGA 26 [-]           
1 21016U 90112A   22281.74563309 -.00000098  00000+0  00000+0 0  9991
2 21016  14.0375 347.8675 0007663  99.1426 270.2405  1.00321691116758
RADUGA-1 2 [-]          
1 21038U 90116A   22281.76854976  .00000076  00000+0  00000+0 0  9999
2 21038  14.0755 347.9395 0009071 106.5489 249.0142  1.00284927 33829
RADUGA 27 [-]           
1 21132U 91014A   22282.34354846  .00000086  00000+0  00000+0 0  9999
2 21132  14.5843 347.4673 0004189 112.5705  61.7431  1.00297219115801
RADUGA 28 [-]           
1 21821U 91087A   22282.52152366 -.00000225  00000+0  00000+0 0  9993
2 21821  14.3564 351.2019 0008441 130.7469 172.2234  1.00187353112842
RADUGA 29 [-]           
1 22557U 93013A   22281.79710466  .00000087  00000+0  00000+0 0  9995
2 22557  14.5696 355.3871 0007984 122.1817 231.6815  1.00364610108169
RADUGA 30 [-]           
1 22836U 93062A   22281.85000758 -.00000104  00000+0  00000+0 0  9993
2 22836  14.6137 357.3582 0000810  37.1281   2.4520  1.00259299 32497
RADUGA-1 3 [-]          
1 22981U 94008A   22282.52353701 -.00000275  00000+0  00000+0 0  9998
2 22981  14.6932 358.5018 0004631 117.4669 183.7435  1.00231628104972
RADUGA 31 [-]           
1 23010U 94012A   22281.84891598 -.00000058  00000+0  00000+0 0  9991
2 23010  14.6633 358.5052 0006227 102.0275 289.1742  1.00337376104843
RADUGA 32 [-]           
1 23448U 94087A   22281.85109807 -.00000113  00000+0  00000+0 0  9996
2 23448  14.6500   1.2197 0005424 193.7697 203.1958  1.00261090119374
RADUGA-1 4 [-]          
1 25642U 99010A   22281.84910458  .00000098  00000+0  00000+0 0  9997
2 25642  15.2367  12.7858 0002067 218.3358 135.0574  1.00319411 86437
RADUGA-1 5 [-]          
1 26477U 00049A   22281.83591017  .00000095  00000+0  00000+0 0  9990
2 26477  13.1929  17.6874 0005554  74.1901 272.2650  1.00296334 80906
RADUGA-1 6 [-]          
1 26936U 01045A   22282.56222306 -.00000198  00000+0  00000+0 0  9995
2 26936  13.3703  24.0121 0016874 163.7664 182.6257  0.97746102 75430
RADUGA-1 7 [-]          
1 28194U 04010A   22282.57465565 -.00000381  00000+0  00000+0 0  9999
2 28194  12.1001  30.8329 0002429 160.2868 154.3546  1.00220549 67918
RADUGA-1M 1 [-]         
1 32373U 07058A   22282.52983510 -.00000038  00000+0  00000+0 0  9997
2 32373   7.1450  63.2418 0002608  48.2076 289.4329  0.99399535 39005
RADUGA-1 8 [-]          
1 34264U 09010A   22282.34354846 -.00000196  00000+0  00000+0 0  9997
2 34264   9.4477  53.2185 0013857   6.8009   2.6576  0.99819144 49737
RADUGA-1M 2 [+]         
1 36358U 10002A   22282.55985161 -.00000197  00000+0  00000+0 0  9990
2 36358   0.1341 105.8778 0001226 177.4775  21.3276  1.00274422 36586
RADUGA-1M 3 [+]         
1 39375U 13062A   22281.51532921  .00000142  00000+0  00000+0 0  9997
2 39375   2.5139  88.3975 0001506 125.6627  23.5916  1.00273945 32619
